[{"OBJECT_NAME":"IRIDIUM 121","OBJECT_ID":"2017-039K","EPOCH":"2026-03-09T22:57:50.967360","MEAN_MOTION":14.34217682,"ECCENTRICITY":0.00021772,"INCLINATION":86.3973,"RA_OF_ASC_NODE":35.125,"ARG_OF_PERICENTER":87.8477,"MEAN_ANOMALY":272.2968,"EPHEMERIS_TYPE":0,"CLASSIFICATION_TYPE":"U","NORAD_CAT_ID":42812,"ELEMENT_SET_NO":999,"REV_AT_EPOCH":45560,"BSTAR":5.919812e-6,"MEAN_MOTION_DOT":3.6e-7,"MEAN_MOTION_DDOT":0},{"OBJECT_NAME":"NOAA 16 DEB","OBJECT_ID":"2000-055EH","EPOCH":"2026-03-09T04:18:03.927168","MEAN_MOTION":14.30613857,"ECCENTRICITY":0.00151258,"INCLINATION":98.7214,"RA_OF_ASC_NODE":153.0192,"ARG_OF_PERICENTER":314.4952,"MEAN_ANOMALY":45.4993,"EPHEMERIS_TYPE":0,"CLASSIFICATION_TYPE":"U","NORAD_CAT_ID":41228,"ELEMENT_SET_NO":999,"REV_AT_EPOCH":52866,"BSTAR":0.0020816929,"MEAN_MOTION_DOT":5.401e-5,"MEAN_MOTION_DDOT":0}]
